NORAD_CAT_ID,OBJECT_NAME,OBJECT_TYPE,EPOCH,MEAN_MOTION,ECCENTRICITY,INCLINATION,RA_OF_ASC_NODE,ARG_OF_PERICENTER,MEAN_ANOMALY,BSTAR,MEAN_MOTION_DOT,MEAN_MOTION_DDOT,TLE_LINE0,TLE_LINE1,TLE_LINE2,SEMIMAJOR_AXIS,PERIOD,APOGEE,PERIGEE,DECAYED
55416.0,STARLINK-5624,PAYLOAD,2024-03-30 08:50:00,14.98331655,0.0002985,70.0006,72.8686,270.8319,89.2498,0.00030127,3.504e-05,0.0,0 STARLINK-5624,1 55416U 23014AB  24090.36806684  .00003504  00000-0  30127-3 0  9995,2 55416  70.0006  72.8686 0002985 270.8319  89.2498 14.98331655 65317,6950.188,96.107,574.127,569.978,0.0
55416.0,STARLINK-5624,PAYLOAD,2024-03-30 23:15:13,14.98335182,0.0002971,70.0008,71.3536,270.705,89.3769,0.00028208,3.275e-05,0.0,0 STARLINK-5624,1 55416U 23014AB  24090.96890572  .00003275  00000-0  28208-3 0  9992,2 55416  70.0008  71.3536 0002971 270.7050  89.3769 14.98335182 65404,6950.177,96.107,574.107,569.977,0.0
55416.0,STARLINK-5624,PAYLOAD,2024-03-31 08:52:01,14.98339371,0.0002919,70.0008,70.3439,266.6037,93.4788,0.00026813,3.108e-05,0.0,0 STARLINK-5624,1 55416U 23014AB  24091.36946283  .00003108  00000-0  26813-3 0  9993,2 55416  70.0008  70.3439 0002919 266.6037  93.4788 14.98339371 64529,6950.164,96.106,574.058,570.0,0.0
55416.0,STARLINK-5624,PAYLOAD,2024-03-31 15:16:33,14.98342783,0.0002595,70.0008,69.6708,273.3481,86.7381,-0.00010671,-1.366e-05,0.0,0 STARLINK-5624,1 55416U 23014AB  24091.63650049 -.00001366  00000-0 -10671-3 0  9996,2 55416  70.0008  69.6708 0002595 273.3481  86.7381 14.98342783 65501,6950.153,96.106,573.822,570.215,0.0
55416.0,STARLINK-5624,PAYLOAD,2024-04-01 02:29:30,14.98336338,0.0002717,70.0014,68.492,268.7754,91.3094,6.8341e-05,7.23e-06,0.0,0 STARLINK-5624,1 55416U 23014AB  24092.10382246  .00000723  00000-0  68341-4 0  9992,2 55416  70.0014  68.4920 0002717 268.7754  91.3094 14.98336338 64633,6950.173,96.107,573.927,570.15,0.0
55416.0,STARLINK-5624,PAYLOAD,2024-04-01 08:54:06,14.98280621,0.0002725,69.9996,67.8197,273.5205,86.5642,-0.00046774,-5.662e-05,0.0,0 STARLINK-5624,1 55416U 23014AB  24092.37091348 -.00005662  00000-0 -46774-3 0  9995,2 55416  69.9996  67.8197 0002725 273.5205  86.5642 14.98280621 64674,6950.346,96.11,574.105,570.317,0.0
55416.0,STARLINK-5624,PAYLOAD,2024-04-01 21:43:08,14.98329555,0.0002978,70.0,66.472,266.8435,93.2383,0.00012944,1.452e-05,0.0,0 STARLINK-5624,1 55416U 23014AB  24092.90495965  .00001452  00000-0  12944-3 0  9990,2 55416  70.0000  66.4720 0002978 266.8435  93.2383 14.98329555 64756,6950.194,96.107,574.129,569.989,0.0
55416.0,STARLINK-5624,PAYLOAD,2024-04-02 07:19:56,14.98335422,0.000289,69.9998,65.4625,265.3986,94.6843,0.00017317,1.974e-05,0.0,0 STARLINK-5624,1 55416U 23014AB  24093.30551593  .00001974  00000-0  17317-3 0  9993,2 55416  69.9998  65.4625 0002890 265.3986  94.6843 14.98335422 65757,6950.176,96.107,574.05,570.033,0.0
55416.0,STARLINK-5624,PAYLOAD,2024-04-02 15:20:36,14.98341855,0.0002987,69.9997,64.6209,265.4154,94.6664,0.00020164,2.314e-05,0.0,0 STARLINK-5624,1 55416U 23014AB  24093.63931036  .00002314  00000-0  20164-3 0  9996,2 55416  69.9997  64.6209 0002987 265.4154  94.6664 14.98341855 64869,6950.156,96.106,574.097,569.945,0.0
55416.0,STARLINK-5624,PAYLOAD,2024-04-02 21:45:08,14.98342258,0.0003024,69.9996,63.9475,266.5888,93.4925,0.00029564,3.437e-05,0.0,0 STARLINK-5624,1 55416U 23014AB  24093.90634820  .00003437  00000-0  29564-3 0  9997,2 55416  69.9996  63.9475 0003024 266.5888  93.4925 14.98342258 65848,6950.155,96.106,574.122,569.918,0.0
55416.0,STARLINK-5624,PAYLOAD,2024-04-03 07:21:57,14.98349674,0.000328,70.0007,62.9375,273.5417,86.5366,0.00065323,7.714e-05,0.0,0 STARLINK-5624,1 55416U 23014AB  24094.30691027  .00007714  00000-0  65323-3 0  9999,2 55416  70.0007  62.9375 0003280 273.5417  86.5366 14.98349674 65900,6950.132,96.106,574.277,569.717,0.0
55416.0,STARLINK-5624,PAYLOAD,2024-04-03 15:22:37,14.98335736,0.0003085,70.0005,62.0942,268.2973,91.7833,0.00080006,9.468e-05,0.0,0 STARLINK-5624,1 55416U 23014AB  24094.64071617  .00009468  00000-0  80006-3 0  9996,2 55416  70.0005  62.0942 0003085 268.2973  91.7833 14.98335736 65013,6950.175,96.107,574.184,569.896,0.0
55416.0,STARLINK-5624,PAYLOAD,2024-04-03 21:47:09,14.98346562,0.0003028,70.0007,61.4205,268.5713,91.5099,0.00013408,1.508e-05,0.0,0 STARLINK-5624,1 55416U 23014AB  24094.90774831  .00001508  00000-0  13408-3 0  9992,2 55416  70.0007  61.4205 0003028 268.5713  91.5099 14.98346562 65990,6950.142,96.106,574.111,569.902,0.0
55416.0,STARLINK-5624,PAYLOAD,2024-04-04 07:23:57,14.98342175,0.0003052,69.9998,60.4117,267.8994,92.1816,8.0617e-05,8.69e-06,0.0,0 STARLINK-5624,1 55416U 23014AB  24095.30830960  .00000869  00000-0  80617-4 0  9999,2 55416  69.9998  60.4117 0003052 267.8994  92.1816 14.98342175 66055,6950.155,96.106,574.141,569.899,0.0
55416.0,STARLINK-5624,PAYLOAD,2024-04-04 15:24:38,14.98342365,0.0002911,70.0002,59.5695,268.624,91.4586,1.1345e-05,4.2e-07,0.0,0 STARLINK-5624,1 55416U 23014AB  24095.64210736  .00000042  00000-0  11345-4 0  9994,2 55416  70.0002  59.5695 0002911 268.6240  91.4586 14.98342365 65168,6950.155,96.106,574.043,569.996,0.0
55416.0,STARLINK-5624,PAYLOAD,2024-04-04 21:49:10,14.98346191,0.0002873,70.0002,58.8962,268.8724,91.2106,-7.3893e-05,-9.75e-06,0.0,0 STARLINK-5624,1 55416U 23014AB  24095.90914357 -.00000975  00000-0 -73893-4 0  9996,2 55416  70.0002  58.8962 0002873 268.8724  91.2106 14.98346191 66149,6950.143,96.106,574.005,570.011,0.0
55416.0,STARLINK-5624,PAYLOAD,2024-04-05 07:25:57,14.98346019,0.0003016,70.0,57.8875,268.4663,91.615,-5.5576e-05,-7.56e-06,0.0,0 STARLINK-5624,1 55416U 23014AB  24096.30969880 -.00000756  00000-0 -55576-4 0  9997,2 55416  70.0000  57.8875 0003016 268.4663  91.6150 14.98346019 66206,6950.143,96.106,574.105,569.912,0.0
55416.0,STARLINK-5624,PAYLOAD,2024-04-05 21:51:10,14.98333574,0.000294,70.0005,56.3726,271.8437,88.2385,4.8347e-05,4.84e-06,0.0,0 STARLINK-5624,1 55416U 23014AB  24096.91054080  .00000484  00000-0  48347-4 0  9995,2 55416  70.0005  56.3726 0002940 271.8437  88.2385 14.98333574 66295,6950.182,96.107,574.09,570.003,0.0
55416.0,STARLINK-5624,PAYLOAD,2024-04-06 04:15:42,14.98335192,0.0002884,70.0006,55.7002,267.0035,93.0794,6.3079e-05,6.6e-06,0.0,0 STARLINK-5624,1 55416U 23014AB  24097.17757821  .00000660  00000-0  63079-4 0  9992,2 55416  70.0006  55.7002 0002884 267.0035  93.0794 14.98335192 65390,6950.177,96.107,574.046,570.037,0.0
55416.0,STARLINK-5624,PAYLOAD,2024-04-06 13:52:31,14.98335035,0.0002599,70.002,54.6904,266.9633,93.1229,-9.1411e-05,-1.184e-05,0.0,0 STARLINK-5624,1 55416U 23014AB  24097.57814132 -.00001184  00000-0 -91411-4 0  9990,2 55416  70.0020  54.6904 0002599 266.9633  93.1229 14.98335035 66391,6950.177,96.107,573.849,570.236,0.0
55416.0,STARLINK-5624,PAYLOAD,2024-04-06 21:53:11,14.98328628,0.0002813,70.0009,53.848,273.5902,86.4936,-2.7877e-05,-4.26e-06,0.0,0 STARLINK-5624,1 55416U 23014AB  24097.91194404 -.00000426  00000-0 -27877-4 0  9994,2 55416  70.0009  53.8480 0002813 273.5902  86.4936 14.98328628 66446,6950.197,96.107,574.017,570.107,0.0
55416.0,STARLINK-5624,PAYLOAD,2024-04-07 07:30:00,14.98329797,0.0002781,70.0008,52.8384,270.5003,89.5837,-1.7042e-05,-2.96e-06,0.0,0 STARLINK-5624,1 55416U 23014AB  24098.31250325 -.00000296  00000-0 -17042-4 0  9992,2 55416  70.0008  52.8384 0002781 270.5003  89.5837 14.98329797 66509,6950.194,96.107,573.991,570.126,0.0
55416.0,STARLINK-5624,PAYLOAD,2024-04-07 13:54:31,14.98357359,0.0002431,70.0017,52.1655,273.8477,86.2404,-0.00047078,-5.709e-05,0.0,0 STARLINK-5624,1 55416U 23014AB  24098.57953465 -.00005709  00000-0 -47078-3 0  9990,2 55416  70.0017  52.1655 0002431 273.8477  86.2404 14.98357359 65605,6950.108,96.105,573.663,570.284,0.0
55416.0,STARLINK-5624,PAYLOAD,2024-04-07 21:55:12,14.98331474,0.0002942,70.0015,51.3236,270.2513,89.8309,3.7795e-05,3.58e-06,0.0,0 STARLINK-5624,1 55416U 23014AB  24098.91334023  .00000358  00000-0  37795-4 0  9990,2 55416  70.0015  51.3236 0002942 270.2513  89.8309 14.98331474 66590,6950.188,96.107,574.098,570.009,0.0
55416.0,STARLINK-5624,PAYLOAD,2024-04-08 04:19:44,14.98335455,0.0002809,70.0005,50.6499,266.4496,93.6342,6.086e-05,6.33e-06,0.0,0 STARLINK-5624,1 55416U 23014AB  24099.18037699  .00000633  00000-0  60860-4 0  9994,2 55416  70.0005  50.6499 0002809 266.4496  93.6342 14.98335455 65694,6950.176,96.107,573.993,570.089,0.0
55416.0,STARLINK-5624,PAYLOAD,2024-04-08 13:56:32,14.98343402,0.0002833,70.0011,49.6398,273.8486,86.2349,-0.00010727,-1.373e-05,0.0,0 STARLINK-5624,1 55416U 23014AB  24099.58093431 -.00001373  00000-0 -10727-3 0  9994,2 55416  70.0011  49.6398 0002833 273.8486  86.2349 14.98343402 66692,6950.151,96.106,573.985,570.047,0.0
55416.0,STARLINK-5624,PAYLOAD,2024-04-08 23:33:21,14.9833186,0.0002592,70.001,48.631,271.5171,88.5691,5.0161e-06,-3.3e-07,0.0,0 STARLINK-5624,1 55416U 23014AB  24099.98150071 -.00000033  00000-0  50161-5 0  9991,2 55416  70.0010  48.6310 0002592 271.5171  88.5691 14.98331860 66759,6950.187,96.107,573.854,570.251,0.0
55416.0,STARLINK-5624,PAYLOAD,2024-04-09 04:21:45,14.98327498,0.0003004,70.0009,48.1258,275.7034,84.3783,0.00012445,1.392e-05,0.0,0 STARLINK-5624,1 55416U 23014AB  24100.18178047  .00001392  00000-0  12445-3 0  9998,2 55416  70.0009  48.1258 0003004 275.7034  84.3783 14.98327498 65843,6950.201,96.107,574.153,569.978,0.0
55416.0,STARLINK-5624,PAYLOAD,2024-04-09 13:58:34,14.98323872,0.0002719,70.0008,47.1159,273.7345,86.3503,0.00014945,1.69e-05,0.0,0 STARLINK-5624,1 55416U 23014AB  24100.58234294  .00001690  00000-0  14945-3 0  9997,2 55416  70.0008  47.1159 0002719 273.7345  86.3503 14.98323872 66841,6950.212,96.107,573.967,570.187,0.0
55416.0,STARLINK-5624,PAYLOAD,2024-04-10 04:23:46,14.98334943,0.0002746,70.001,45.6009,268.3908,91.6936,2.5549e-05,2.12e-06,0.0,0 STARLINK-5624,1 55416U 23014AB  24101.18317698  .00000212  00000-0  25549-4 0  9996,2 55416  70.0010  45.6009 0002746 268.3908  91.6936 14.98334943 65991,6950.178,96.107,573.951,570.134,0.0
